start=new Date('2023-06-08T00:00:00.000Z').valueOf();
sats=[{"DECAY_DATE":null,"OBJECT_ID":"2021-024B","MEAN_ELEMENT_THEORY":"SGP4","RCS_SIZE":"LARGE","FILE":"3927436","MEAN_MOTION":"15.06401160","MEAN_MOTION_DOT":"0.00002262","APOAPSIS":"548.023","BSTAR":"0.00017069000000","REV_AT_EPOCH":"12294","PERIAPSIS":"546.397","MEAN_ANOMALY":"280.8357","INCLINATION":"53.0528","GP_ID":"233430443","ECCENTRICITY":"0.00011740","EPOCH":"2023-06-07T18:11:10.457952","CENTER_NAME":"EARTH","PERIOD":"95.592","ELEMENT_SET_NO":"999","RA_OF_ASC_NODE":"172.4215","LAUNCH_DATE":"2021-03-24","ARG_OF_PERICENTER":"79.2764","TLE_LINE2":"2 47978  53.0528 172.4215 0001174  79.2764 280.8357 15.06401160122945","SEMIMAJOR_AXIS":"6925.345","MEAN_MOTION_DDOT":"0.0000000000000","CLASSIFICATION_TYPE":"U","OBJECT_NAME":"STARLINK-1647","NORAD_CAT_ID":"47978","TLE_LINE1":"1 47978U 21024B   23158.75775993  .00002262  00000-0  17069-3 0  9993","COUNTRY_CODE":"US","EPHEMERIS_TYPE":"0","OBJECT_TYPE":"PAYLOAD","TIME_SYSTEM":"UTC","SITE":"AFETR","REF_FRAME":"TEME"},{"TIME_SYSTEM":"UTC","SITE":"AFETR","OBJECT_TYPE":"PAYLOAD","EPHEMERIS_TYPE":"0","REF_FRAME":"TEME","OBJECT_NAME":"STARLINK-2325","NORAD_CAT_ID":"47979","LAUNCH_DATE":"2021-03-24","ARG_OF_PERICENTER":"87.0789","TLE_LINE2":"2 47979  53.0538 110.0906 0001333  87.0789 273.0353 15.06393238123760","MEAN_MOTION_DDOT":"0.0000000000000","SEMIMAJOR_AXIS":"6925.369","CLASSIFICATION_TYPE":"U","COUNTRY_CODE":"US","TLE_LINE1":"1 47979U 21024C   23158.16477945 -.00000409  00000-0 -85949-5 0  9992","CENTER_NAME":"EARTH","PERIOD":"95.593","ELEMENT_SET_NO":"999","RA_OF_ASC_NODE":"110.0906","ECCENTRICITY":"0.00013330","GP_ID":"233398481","EPOCH":"2023-06-07T03:57:16.944480","BSTAR":"-0.00000859490000","REV_AT_EPOCH":"12376","PERIAPSIS":"546.311","INCLINATION":"53.0538","MEAN_ANOMALY":"273.0353","MEAN_MOTION":"15.06393238","RCS_SIZE":"LARGE","FILE":"3927174","MEAN_MOTION_DOT":"-0.00000409","APOAPSIS":"548.157","DECAY_DATE":null,"MEAN_ELEMENT_THEORY":"SGP4","OBJECT_ID":"2021-024C"},{"PERIOD":"95.592","ELEMENT_SET_NO":"999","RA_OF_ASC_NODE":"87.1384","CENTER_NAME":"EARTH","TLE_LINE1":"1 47980U 21024D   23158.84853596  .00021697  00000-0  14708-2 0  9991","COUNTRY_CODE":"US","ARG_OF_PERICENTER":"98.4583","LAUNCH_DATE":"2021-03-24","TLE_LINE2":"2 47980  53.0538  87.1384 0000960  98.4583 261.6515 15.06405201124149","MEAN_MOTION_DDOT":"0.0000000000000","SEMIMAJOR_AXIS":"6925.333","CLASSIFICATION_TYPE":"U","OBJECT_NAME":"STARLINK-2312","NORAD_CAT_ID":"47980","REF_FRAME":"TEME","EPHEMERIS_TYPE":"0","OBJECT_TYPE":"PAYLOAD","SITE":"AFETR","TIME_SYSTEM":"UTC","OBJECT_ID":"2021-024D","MEAN_ELEMENT_THEORY":"SGP4","DECAY_DATE":null,"MEAN_MOTION_DOT":"0.00021697","APOAPSIS":"547.862","FILE":"3927436","RCS_SIZE":"LARGE","MEAN_MOTION":"15.06405201","REV_AT_EPOCH":"12414","PERIAPSIS":"546.533","INCLINATION":"53.0538","MEAN_ANOMALY":"261.6515","BSTAR":"0.00147080000000","EPOCH":"2023-06-07T20:21:53.506944","GP_ID":"233430945","ECCENTRICITY":"0.00009600"},{"EPOCH":"2023-06-07T17:55:14.968128","GP_ID":"233431695","ECCENTRICITY":"0.00009840","INCLINATION":"53.0533","PERIAPSIS":"546.552","MEAN_ANOMALY":"267.9468","REV_AT_EPOCH":"12294","BSTAR":"0.00001324400000","APOAPSIS":"547.915","MEAN_MOTION_DOT":"-0.00000084","FILE":"3927436","RCS_SIZE":"LARGE","MEAN_MOTION":"15.06393364","OBJECT_ID":"2021-024E","MEAN_ELEMENT_THEORY":"SGP4","DECAY_DATE":null,"REF_FRAME":"TEME","OBJECT_TYPE":"PAYLOAD","EPHEMERIS_TYPE":"0","SITE":"AFETR","TIME_SYSTEM":"UTC","TLE_LINE1":"1 47981U 21024E   23158.74670102 -.00000084  00000-0  13244-4 0  9995","COUNTRY_CODE":"US","TLE_LINE2":"2 47981  53.0533 172.4729 0000984  92.1634 267.9468 15.06393364122948","CLASSIFICATION_TYPE":"U","SEMIMAJOR_AXIS":"6925.369","MEAN_MOTION_DDOT":"0.0000000000000","LAUNCH_DATE":"2021-03-24","ARG_OF_PERICENTER":"92.1634","OBJECT_NAME":"STARLINK-2303","NORAD_CAT_ID":"47981","RA_OF_ASC_NODE":"172.4729","PERIOD":"95.593","ELEMENT_SET_NO":"999","CENTER_NAME":"EARTH"},{"COUNTRY_CODE":"US","TLE_LINE1":"1 47982U 21024F   23158.26291401  .00000794  00000-0  72208-4 0  9996","OBJECT_NAME":"STARLINK-2317","NORAD_CAT_ID":"47982","ARG_OF_PERICENTER":"105.2241","LAUNCH_DATE":"2021-03-24","MEAN_MOTION_DDOT":"0.0000000000000","TLE_LINE2":"2 47982  53.0540 104.6400 0000993 105.2241 254.8858 15.06395190123791","SEMIMAJOR_AXIS":"6925.363","CLASSIFICATION_TYPE":"U","REF_FRAME":"TEME","SITE":"AFETR","TIME_SYSTEM":"UTC","OBJECT_TYPE":"PAYLOAD","EPHEMERIS_TYPE":"0","ELEMENT_SET_NO":"999","PERIOD":"95.592","RA_OF_ASC_NODE":"104.6400","CENTER_NAME":"EARTH","REV_AT_EPOCH":"12379","MEAN_ANOMALY":"254.8858","PERIAPSIS":"546.541","INCLINATION":"53.0540","BSTAR":"0.00007220800000","EPOCH":"2023-06-07T06:18:35.770464","ECCENTRICITY":"0.00009930","GP_ID":"233397730","MEAN_ELEMENT_THEORY":"SGP4","OBJECT_ID":"2021-024F","DECAY_DATE":null,"MEAN_MOTION_DOT":"0.00000794","APOAPSIS":"547.916","MEAN_MOTION":"15.06395190","FILE":"3927174","RCS_SIZE":"LARGE"},{"REV_AT_EPOCH":"12371","PERIAPSIS":"546.277","MEAN_ANOMALY":"266.0938","INCLINATION":"53.0535","BSTAR":"-0.00000435490000","EPOCH":"2023-06-07T06:25:55.869600","ECCENTRICITY":"0.00013870","GP_ID":"233397982","MEAN_ELEMENT_THEORY":"SGP4","OBJECT_ID":"2021-024J","DECAY_DATE":null,"MEAN_MOTION_DOT":"-0.00000346","APOAPSIS":"548.199","MEAN_MOTION":"15.06392026","FILE":"3927174","RCS_SIZE":"LARGE","COUNTRY_CODE":"US","TLE_LINE1":"1 47985U 21024J   23158.26800775 -.00000346  00000-0 -43549-5 0  9991","OBJECT_NAME":"STARLINK-2308","NORAD_CAT_ID":"47985","ARG_OF_PERICENTER":"94.0209","LAUNCH_DATE":"2021-03-24","MEAN_MOTION_DDOT":"0.0000000000000","TLE_LINE2":"2 47985  53.0535 109.7789 0001387  94.0209 266.0938 15.06392026123712","SEMIMAJOR_AXIS":"6925.373","CLASSIFICATION_TYPE":"U","REF_FRAME":"TEME","SITE":"AFETR","TIME_SYSTEM":"UTC","EPHEMERIS_TYPE":"0","OBJECT_TYPE":"PAYLOAD","PERIOD":"95.593","ELEMENT_SET_NO":"999","RA_OF_ASC_NODE":"109.7789","CENTER_NAME":"EARTH"},{"COUNTRY_CODE":"US","TLE_LINE1":"1 47989U 21024N   23158.18735573  .00003030  00000-0  22232-3 0  9994","OBJECT_NAME":"STARLINK-2305","NORAD_CAT_ID":"47989","ARG_OF_PERICENTER":"85.1237","LAUNCH_DATE":"2021-03-24","TLE_LINE2":"2 47989  53.0540  84.9906 0001322  85.1237 274.9903 15.06387762124068","SEMIMAJOR_AXIS":"6925.386","CLASSIFICATION_TYPE":"U","MEAN_MOTION_DDOT":"0.0000000000000","REF_FRAME":"TEME","TIME_SYSTEM":"UTC","SITE":"AFETR","OBJECT_TYPE":"PAYLOAD","EPHEMERIS_TYPE":"0","ELEMENT_SET_NO":"999","PERIOD":"95.593","RA_OF_ASC_NODE":"84.9906","CENTER_NAME":"EARTH","REV_AT_EPOCH":"12406","PERIAPSIS":"546.336","MEAN_ANOMALY":"274.9903","INCLINATION":"53.0540","BSTAR":"0.00022232000000","EPOCH":"2023-06-07T04:29:47.535072","ECCENTRICITY":"0.00013220","GP_ID":"233398732","MEAN_ELEMENT_THEORY":"SGP4","OBJECT_ID":"2021-024N","DECAY_DATE":null,"MEAN_MOTION_DOT":"0.00003030","APOAPSIS":"548.167","MEAN_MOTION":"15.06387762","FILE":"3927174","RCS_SIZE":"LARGE"},{"BSTAR":"0.00019578000000","INCLINATION":"53.0544","PERIAPSIS":"546.201","MEAN_ANOMALY":"247.5310","REV_AT_EPOCH":"12414","GP_ID":"233431196","ECCENTRICITY":"0.00014750","EPOCH":"2023-06-07T19:16:12.220608","DECAY_DATE":null,"OBJECT_ID":"2021-024P","MEAN_ELEMENT_THEORY":"SGP4","RCS_SIZE":"LARGE","FILE":"3927436","MEAN_MOTION":"15.06397202","APOAPSIS":"548.244","MEAN_MOTION_DOT":"0.00002636","MEAN_MOTION_DDOT":"0.0000000000000","TLE_LINE2":"2 47990  53.0544  82.2177 0001475 112.5835 247.5310 15.06397202124140","SEMIMAJOR_AXIS":"6925.357","CLASSIFICATION_TYPE":"U","ARG_OF_PERICENTER":"112.5835","LAUNCH_DATE":"2021-03-24","NORAD_CAT_ID":"47990","OBJECT_NAME":"STARLINK-2307","TLE_LINE1":"1 47990U 21024P   23158.80291922  .00002636  00000-0  19578-3 0  9990","COUNTRY_CODE":"US","EPHEMERIS_TYPE":"0","OBJECT_TYPE":"PAYLOAD","TIME_SYSTEM":"UTC","SITE":"AFETR","REF_FRAME":"TEME","CENTER_NAME":"EARTH","RA_OF_ASC_NODE":"82.2177","PERIOD":"95.592","ELEMENT_SET_NO":"999"},{"LAUNCH_DATE":"2021-03-24","ARG_OF_PERICENTER":"91.9614","TLE_LINE2":"2 47991  53.0536  97.1743 0001096  91.9614 268.1501 15.06404861123993","MEAN_MOTION_DDOT":"0.0000000000000","SEMIMAJOR_AXIS":"6925.334","CLASSIFICATION_TYPE":"U","OBJECT_NAME":"STARLINK-2279","NORAD_CAT_ID":"47991","TLE_LINE1":"1 47991U 21024Q   23158.81442086  .00018747  00000-0  12739-2 0  9992","COUNTRY_CODE":"US","OBJECT_TYPE":"PAYLOAD","EPHEMERIS_TYPE":"0","SITE":"AFETR","TIME_SYSTEM":"UTC","REF_FRAME":"TEME","CENTER_NAME":"EARTH","ELEMENT_SET_NO":"999","PERIOD":"95.592","RA_OF_ASC_NODE":"97.1743","BSTAR":"0.00127390000000","REV_AT_EPOCH":"12399","MEAN_ANOMALY":"268.1501","PERIAPSIS":"546.440","INCLINATION":"53.0536","GP_ID":"233430444","ECCENTRICITY":"0.00010960","EPOCH":"2023-06-07T19:32:45.962304","DECAY_DATE":null,"OBJECT_ID":"2021-024Q","MEAN_ELEMENT_THEORY":"SGP4","RCS_SIZE":"LARGE","FILE":"3927436","MEAN_MOTION":"15.06404861","MEAN_MOTION_DOT":"0.00018747","APOAPSIS":"547.958"},{"DECAY_DATE":null,"OBJECT_ID":"2021-024R","MEAN_ELEMENT_THEORY":"SGP4","RCS_SIZE":"LARGE","FILE":"3927174","MEAN_MOTION":"15.06390388","MEAN_MOTION_DOT":"-0.00001260","APOAPSIS":"548.219","BSTAR":"-0.00006572100000","REV_AT_EPOCH":"12393","INCLINATION":"53.0548","PERIAPSIS":"546.267","MEAN_ANOMALY":"249.7084","GP_ID":"233398482","ECCENTRICITY":"0.00014090","EPOCH":"2023-06-07T05:42:47.482848","CENTER_NAME":"EARTH","PERIOD":"95.593","ELEMENT_SET_NO":"999","RA_OF_ASC_NODE":"94.8380","ARG_OF_PERICENTER":"110.4056","LAUNCH_DATE":"2021-03-24","MEAN_MOTION_DDOT":"0.0000000000000","TLE_LINE2":"2 47992  53.0548  94.8380 0001409 110.4056 249.7084 15.06390388123936","SEMIMAJOR_AXIS":"6925.378","CLASSIFICATION_TYPE":"U","NORAD_CAT_ID":"47992","OBJECT_NAME":"STARLINK-2229","TLE_LINE1":"1 47992U 21024R   23158.23804957 -.00001260  00000-0 -65721-4 0  9993","COUNTRY_CODE":"US","OBJECT_TYPE":"PAYLOAD","EPHEMERIS_TYPE":"0","TIME_SYSTEM":"UTC","SITE":"AFETR","REF_FRAME":"TEME"}];
